2 45072  53.0522 145.0681 0001194  85.9868 346.1818 15.06362575    13
STARLINK-1170           
1 45073C 20006AF  22353.85048611  .00013822  00000-0  92608-3 0  3533
2 45073  53.0525 145.1645 0001818  49.7139 114.2519 15.06383814    11
STARLINK-1172           
1 45074C 20006AG  22353.86784722  .00012095  00000-0  81083-3 0  3531
2 45074  53.0532 145.0915 0001302  84.8621 253.3682 15.06367834    13
STARLINK-1174           
1 45075C 20006AH  22353.87895833 -.00001868  00000-0 -12516-3 0  3532
2 45075  53.0541 145.0494 0001541  65.5667 152.9783 15.06407311    18
STARLINK-1180           
1 45076C 20006AJ  22353.88173611  .00001052  00000-0  70476-4 0  3530
2 45076  53.0536 145.0293 0001486  55.7409 142.9919 15.06403506    15
STARLINK-1177           
1 45078C 20006AL  22353.86368056  .00011925  00000-0  79959-3 0  3533
2 45078  53.0524 145.1153 0001349  74.1863 281.4929 15.06360357    13
STARLINK-1149           
1 45079C 20006AM  22353.87131944  .00018083  00000-0  12108-2 0  3533
2 45079  53.0527 145.0699 0001077  75.8752  86.1813 15.06404702    19
STARLINK-1153           
1 45080C 20006AN  22353.87131944  .00000818  00000-0  54755-4 0  3538
2 45080  53.0534 145.0797 0001573  61.2044  55.8166 15.06415930    11
STARLINK-1151           
1 45081C 20006AP  22353.85326389  .00018406  00000-0  12325-2 0  3533
2 45081  53.0532 145.1352 0001865  53.0886  90.9883 15.06401292    17
STARLINK-1160           
1 45082C 20006AQ  22353.85395833  .00003410  00000-0  22840-3 0  3537
2 45082  53.0516 145.1458 0001645  59.8836 148.1262 15.06405444    12
STARLINK-1190           
1 45083C 20006AR  22353.88173611 -.00016099  00000-0 -10786-2 0  3533
2 45083  53.0517 165.0225 0001489  69.3562 114.2203 15.06416853    10
STARLINK-1173           
1 45084C 20006AS  22353.85743056  .00020841  00000-0  13968-2 0  3530
2 45084  53.0512 125.1488 0001531  69.3080  82.3821 15.06365099    13
STARLINK-1179           
1 45085C 20006AT  22353.85534722  .00020907  00000-0  14011-2 0  3532
2 45085  53.0522 125.1526 0001250  82.3229  78.0577 15.06369612    11
STARLINK-1185           
1 45087C 20006AV  22353.83590278  .00019964  00000-0  13380-2 0  3539
2 45087  53.0535 125.2367 0001592  61.3621  73.5091 15.06368178    10
STARLINK-1183           
1 45088C 20006AW  22353.87270833 -.00008598  00000-0 -57581-3 0  3531
2 45088  53.0524 125.0556 0001736  57.1224 157.4535 15.06425709    18
STARLINK-1136           
1 45089C 20006AX  22353.86923611  .00015412  00000-0  10329-2 0  3539
2 45089  53.0528 125.1747 0001551  69.0700  86.6111 15.06373326    12
STARLINK-1176           
1 45090C 20006AY  22353.84979167  .00021183  00000-0  14196-2 0  3534
2 45090  53.0517 125.1672 0001244  83.7886  91.5843 15.06368786    17
STARLINK-1137           
1 45092C 20006BA  22353.90048611  .00018637  00000-0  12484-2 0  3532
2 45092  53.0527 124.9484 0001375  66.0310 159.2199 15.06388790    12
STARLINK-1142           
1 45093C 20006BB  22353.85465278  .00023344  00000-0  15644-2 0  3531
2 45093  53.0525 125.1494 0001556  62.5979 294.0160 15.06366633    16
STARLINK-1146           
1 45094C 20006BC  22353.87201389  .00022310  00000-0  14939-2 0  3533
2 45094  53.0533 125.0635 0001501  61.5291 314.2997 15.06399748    14
STARLINK-1147           
1 45095C 20006BD  22353.84631944 -.00003991  00000-0 -26732-3 0  3536
2 45095  53.0543 125.1758 0001675  47.5998 168.9894 15.06408531    14
STARLINK-1152           
1 45096C 20006BE  22353.87131944  .00022057  00000-0  14786-2 0  3532
2 45096  53.0541 125.0725 0001468  69.5445 317.5339 15.06358473    12
STARLINK-1184           
1 45098C 20006BG  22353.87479167 -.00000644  00000-0 -43114-4 0  3535
2 45098  53.0541 125.0580 0001575  58.7835  87.1505 15.06407816    16
STARLINK-1186           
1 45099C 20006BH  22353.84423611  .00019680  00000-0  13190-2 0  3533
2 45099  53.0511 125.2003 0001310  81.5816  78.5063 15.06367431    17
STARLINK-1193           
1 45100C 20006BJ  22353.87062500 -.00005016  00000-0 -33605-3 0  3539
2 45100  53.0531 125.0887 0001869  45.8899  97.4476 15.06408236    10
STARLINK-1194           
1 45101C 20006BK  22353.87895833  .00012916  00000-0  86508-3 0  3538
2 45101  53.0534 125.0259 0001638  51.8685 161.7847 15.06398418    18
STARLINK-1195           
1 45102C 20006BL  22353.86298611  .00022512  00000-0  15086-2 0  3534
2 45102  53.0535 125.1113 0001378  77.8051 284.0267 15.06368861    10
STARLINK-1196           
1 45103C 20006BM  22353.87062500  .00000086  00000-0  57455-5 0  3533
2 45103  53.0522 125.0624 0001376  76.4201 152.0392 15.06395898    16
STARLINK-1138           
1 45178C 20012A   22353.90118056 -.00038057  00000-0 -25493-2 0  3539
2 45178  53.0526 284.9388 0001423  93.9945  15.1190 15.06445731    13
STARLINK-1143           
1 45179C 20012B   22353.86993056 -.00020489  00000-0 -13721-2 0  3537
2 45179  53.0539 285.0823 0001611  63.1857 221.4614 15.06435692    12
STARLINK-1200           
1 45181C 20012D   22353.87409722 -.00021645  00000-0 -14495-2 0  3537
2 45181  53.0527 285.0647 0001494  86.1441 295.9998 15.06439814    10
STARLINK-1201           
1 45182C 20012E   22353.87756944 -.00027548  00000-0 -18451-2 0  3533
2 45182  53.0548 265.0411 0001394  68.2086 222.7544 15.06440089    17
STARLINK-1202           
1 45183C 20012F   22353.85881944 -.00021731  00000-0 -14552-2 0  3537
2 45183  53.0539 285.1341 0001709  58.6521  40.5711 15.06440003    18
STARLINK-1205           
1 45184C 20012G   22353.85118056 -.00022740  00000-0 -15225-2 0  3534
2 45184  53.0543 265.1765 0001444  96.4131  11.2190 15.06447569    15
STARLINK-1216           
1 45185C 20012H   22353.86229167 -.00022068  00000-0 -14781-2 0  3531
2 45185  53.0538 285.1259 0001455  67.8497  90.2417 15.06434221    19
STARLINK-1224           
1 45186C 20012J   22353.85187500 -.00044207  00000-0 -29621-2 0  3533
2 45186  53.0513 285.1755 0001633  89.2338 292.2476 15.06440648    13
STARLINK-1225           
1 45187C 20012K   22353.87062500 -.00018030  00000-0 -12076-2 0  3539
2 45187  53.0531 285.0879 0001537  73.7974  29.4934 15.06430490    10
STARLINK-1228           
1 45188C 20012L   22353.87409722 -.00011942  00000-0 -79968-3 0  3530
2 45188  53.0526 245.0576 0001616  55.3367 266.7620 15.06430838    19
STARLINK-1230           
1 45189C 20012M   22353.87409722 -.00022868  00000-0 -15314-2 0  3534
2 45189  53.0535 285.0698 0001598  89.4569  12.6595 15.06441636    17
STARLINK-1234           
1 45190C 20012N   22353.85534722 -.00021806  00000-0 -14614-2 0  3536
2 45190  53.0529 245.1522 0001591  83.1146 177.2091 15.06411505    11
STARLINK-1236           
1 45191C 20012P   22353.88104167 -.00022548  00000-0 -15098-2 0  3537
2 45191  53.0541 285.0373 0001620  62.8789  36.8934 15.06443546    19
STARLINK-1237           
1 45192C 20012Q   22353.85395833 -.00019506  00000-0 -13063-2 0  3537
2 45192  53.0544 285.1605 0001558  67.7500  25.1183 15.06435616    13
STARLINK-1239           
1 45193C 20012R   22353.87756944 -.00024675  00000-0 -16525-2 0  3533
2 45193  53.0536 285.0547 0001648  63.3719 217.6031 15.06440286    12
STARLINK-1240           
1 45194C 20012S   22353.85881944 -.00005746  00000-0 -38474-3 0  3537
2 45194  53.0541 285.1299 0001371  80.7316  78.5431 15.06425683    15
STARLINK-1244           
1 45196C 20012U   22353.88173611 -.00021165  00000-0 -14174-2 0  3530
2 45196  53.0543 285.0367 0001616  59.6629 323.9018 15.06437763    18
STARLINK-1269           
1 45197C 20012V   22353.88034722 -.00011810  00000-0 -79103-3 0  3530
2 45197  53.0527 285.0378 0001459  73.1843   2.8847 15.06420955    15
STARLINK-1154           
1 45198C 20012W   22353.87895833 -.00026323  00000-0 -17629-2 0  3537
2 45198  53.0541 265.0524 0001444  67.7534  50.7522 15.06441213    15
STARLINK-1197           
1 45199C 20012X   22353.88243056 -.00025492  00000-0 -17070-2 0  3539
2 45199  53.0539 265.0351 0001485  82.1401  35.1767 15.06445176    10
STARLINK-1199           
1 45201C 20012Z   22353.87548611 -.00020194  00000-0 -13524-2 0  3531
2 45201  53.0551 265.0600 0001461  81.8879 317.7594 15.06436408    19
STARLINK-1206           
1 45204C 20012AC  22353.88104167 -.00025284  00000-0 -16935-2 0  3533
2 45204  53.0542 265.0355 0001600  64.2360 225.5782 15.06435756    14
STARLINK-1208           
1 45205C 20012AD  22353.87548611 -.00016701  00000-0 -11190-2 0  3531
2 45205  53.0549 265.0489 0001483  70.1937  69.4455 15.06415926    14
STARLINK-1209           
1 45206C 20012AE  22353.87062500 -.00025361  00000-0 -16988-2 0  3532
2 45206  53.0548 245.0723 0001548  81.3878 241.9162 15.06433915    13
STARLINK-1210           
1 45207C 20012AF  22353.87826389 -.00009436  00000-0 -63192-3 0  3531
2 45207  53.0545 265.0464 0001540  74.6239 320.0922 15.06426010    14
STARLINK-1211           
1 45208C 20012AG  22353.86923611 -.00079669  00000-0 -54553-2 0  3532
2 45208  52.9980 265.0853 0001582  99.5652 288.2366 15.05669627    18
STARLINK-1219           
1 45210C 20012AJ  22353.88243056 -.00017145  00000-0 -11481-2 0  3539
2 45210  53.0536 265.0354 0001497  72.9660 324.3624 15.06435995    14
STARLINK-1231           
1 45212C 20012AL  22353.86298611 -.00021666  00000-0 -14512-2 0  3537
2 45212  53.0543 265.1247 0001551  82.2491  29.5709 15.06431669    15
STARLINK-1232           
1 45213C 20012AM  22353.86506944  .00022161  00000-0  46853-3 0  3532
2 45213  53.0565 188.1234 0005158 103.0100 219.2652 15.44531183    15
STARLINK-1233           
1 45214C 20012AN  22353.86854167 -.00017938  00000-0 -12011-2 0  3532
2 45214  53.0542 265.0832 0001619  69.1753 217.9207 15.06439409    11
STARLINK-1245           
1 45215C 20012AP  22353.85395833 -.00060596  00000-0 -40614-2 0  3530
2 45215  53.0525 265.1602 0001390  96.2604 126.5406 15.06446350    10
STARLINK-1271           
1 45217C 20012AR  22353.87479167 -.00021189  00000-0 -14191-2 0  3533
2 45217  53.0537 265.0644 0001465  74.1423  41.7565 15.06434404    18
